[Satellite]
VERSION=1.1
NAME=M-CUBED & EXP-1 PRIME
NICKNAME=M-CUBED & EXP-1 PRIME
TLE1=1 37855U 11061F   20157.75330461  .00001403  00000-0  76348-4 0  9991
TLE2=2 37855 101.7130 240.1318 0171238 109.7053 252.2721 15.06293868469917
STATUS=0
